{"type":"FeatureCollection","features":[{"type":"Feature","properties":{"id":"ca-mau","name":"Cà Mau","kind":"province"},"geometry":{"type":"MultiPolygon","coordinates":[[[[104.833,8.443],[104.836,8.456],[104.83,8.459],[104.829,8.472],[104.824,8.472],[104.818,8.459],[104.819,8.453],[104.829,8.44],[104.833,8.443]]],[[[105.265,9.426],[105.204,9.456],[105.182,9.471],[105.164,9.491],[105.144,9.502],[105.131,9.515],[105.05,9.573],[105.014,9.589],[104.992,9.593],[104.962,9.59],[104.913,9.59],[104.895,9.578],[104.876,9.553],[104.841,9.572],[104.838,9.558],[104.834,9.448],[104.819,9.238],[104.798,9.142],[104.802,9.111],[104.805,8.925],[104.797,8.885],[104.786,8.858],[104.778,8.824],[104.784,8.803],[104.798,8.788],[104.821,8.792],[104.87,8.817],[104.886,8.816],[104.879,8.797],[104.836,8.781],[104.817,8.768],[104.803,8.725],[104.793,8.716],[104.79,8.691],[104.799,8.671],[104.791,8.657],[104.771,8.649],[104.742,8.643],[104.717,8.646],[104.708,8.631],[104.715,8.613],[104.735,8.601],[104.764,8.592],[104.827,8.579],[104.879,8.576],[104.928,8.581],[104.981,8.597],[105.055,8.629],[105.108,8.658],[105.156,8.691],[105.213,8.756],[105.233,8.77],[105.254,8.779],[105.299,8.814],[105.318,8.835],[105.343,8.872],[105.39,8.965],[105.399,8.998],[105.414,9.025],[105.441,9.059],[105.438,9.056],[105.415,9.078],[105.399,9.088],[105.335,9.103],[105.295,9.119],[105.273,9.124],[105.262,9.133],[105.256,9.148],[105.266,9.165],[105.278,9.195],[105.265,9.211],[105.245,9.225],[105.234,9.258],[105.262,9.294],[105.279,9.33],[105.267,9.343],[105.268,9.364],[105.28,9.386],[105.265,9.426]]]]}},{"type":"Feature","properties":{"id":"a-luoi","name":"A Lưới","kind":"district"},"geometry":{"type":"Polygon","coordinates":[[[107.13,16.448],[107.124,16.442],[107.106,16.44],[107.089,16.449],[107.06,16.448],[107.057,16.441],[107.051,16.434],[107.05,16.425],[107.059,16.413],[107.06,16.388],[107.054,16.382],[107.046,16.38],[107.04,16.37],[107.03,16.37],[107.016,16.361],[107.024,16.355],[107.021,16.35],[107.024,16.334],[107.022,16.32],[107.028,16.31],[107.039,16.303],[107.045,16.294],[107.051,16.304],[107.072,16.304],[107.078,16.311],[107.086,16.312],[107.145,16.271],[107.156,16.256],[107.153,16.253],[107.153,16.242],[107.148,16.238],[107.154,16.231],[107.146,16.221],[107.144,16.214],[107.147,16.209],[107.148,16.19],[107.154,16.184],[107.159,16.168],[107.17,16.166],[107.176,16.158],[107.186,16.152],[107.194,16.144],[107.207,16.145],[107.224,16.137],[107.225,16.141],[107.242,16.148],[107.254,16.136],[107.262,16.137],[107.267,16.119],[107.278,16.116],[107.284,16.119],[107.307,16.081],[107.313,16.078],[107.319,16.07],[107.327,16.068],[107.333,16.055],[107.338,16.056],[107.346,16.062],[107.365,16.061],[107.377,16.074],[107.388,16.063],[107.399,16.062],[107.403,16.078],[107.411,16.084],[107.42,16.079],[107.427,16.078],[107.435,16.083],[107.443,16.083],[107.446,16.091],[107.449,16.091],[107.461,16.073],[107.45,16.063],[107.445,16.054],[107.447,16.038],[107.453,16.037],[107.458,16.029],[107.467,16.025],[107.476,16.035],[107.482,16.035],[107.487,16.041],[107.491,16.041],[107.503,16.032],[107.51,16.018],[107.52,16.015],[107.516,16.023],[107.522,16.041],[107.52,16.052],[107.517,16.051],[107.517,16.075],[107.513,16.079],[107.513,16.096],[107.516,16.102],[107.512,16.104],[107.509,16.115],[107.512,16.116],[107.511,16.125],[107.514,16.126],[107.514,16.132],[107.51,16.133],[107.509,16.14],[107.513,16.14],[107.511,16.143],[107.521,16.154],[107.516,16.17],[107.521,16.175],[107.519,16.182],[107.522,16.183],[107.525,16.189],[107.518,16.196],[107.528,16.198],[107.529,16.211],[107.515,16.239],[107.516,16.243],[107.512,16.248],[107.506,16.245],[107.503,16.247],[107.508,16.254],[107.501,16.257],[107.501,16.265],[107.495,16.265],[107.497,16.27],[107.481,16.267],[107.478,16.263],[107.474,16.266],[107.475,16.262],[107.471,16.264],[107.47,16.261],[107.46,16.255],[107.455,16.259],[107.448,16.254],[107.438,16.257],[107.422,16.278],[107.412,16.28],[107.41,16.292],[107.414,16.305],[107.399,16.317],[107.399,16.329],[107.403,16.337],[107.408,16.34],[107.407,16.343],[107.401,16.345],[107.386,16.346],[107.376,16.337],[107.362,16.341],[107.358,16.338],[107.343,16.338],[107.343,16.344],[107.331,16.347],[107.329,16.353],[107.321,16.356],[107.31,16.369],[107.289,16.377],[107.284,16.376],[107.275,16.383],[107.267,16.383],[107.251,16.374],[107.246,16.38],[107.236,16.376],[107.222,16.364],[107.22,16.348],[107.2,16.347],[107.192,16.355],[107.187,16.356],[107.181,16.366],[107.183,16.369],[107.168,16.374],[107.166,16.378],[107.153,16.379],[107.145,16.387],[107.153,16.391],[107.141,16.406],[107.143,16.411],[107.141,16.416],[107.146,16.422],[107.144,16.428],[107.149,16.435],[107.139,16.438],[107.13,16.448]]]}},{"type":"Feature","properties":{"id":"bien-hoa-airbase","name":"Biên Hòa Air Base","kind":"airbase"},"geometry":{"type":"Polygon","coordinates":[[[106.789,10.949],[106.845,10.957],[106.84,11.001],[106.784,10.993],[106.789,10.949]]]}}]}