{"type":"FeatureCollection","features":[{"type":"Feature","properties":{"pair":"1-2"},"geometry":{"type":"LineString","coordinates":[[107.617,15.403],[107.636,15.414],[107.663,15.402],[107.671,15.379],[107.673,15.369],[107.679,15.357],[107.7,15.335],[107.728,15.316],[107.749,15.307],[107.762,15.296],[107.766,15.269],[107.772,15.255],[107.779,15.242],[107.797,15.229],[107.849,15.225],[107.879,15.221],[107.927,15.214],[107.977,15.203],[107.994,15.194],[108.053,15.16],[108.059,15.148],[108.059,15.14],[108.055,15.132],[108.036,15.102],[108.033,15.095],[108.024,15.083],[108.013,15.055],[108.016,15.051],[108.03,15.038],[108.036,15.031],[108.06,15.023],[108.078,15.02],[108.084,15.017],[108.11,15],[108.131,14.989],[108.152,14.983],[108.191,14.985],[108.225,14.984],[108.234,14.987],[108.237,14.993],[108.235,15.003],[108.221,15.039],[108.221,15.056],[108.224,15.07],[108.234,15.078],[108.244,15.077],[108.278,15.052],[108.303,15.047],[108.316,15.042],[108.332,15.016],[108.338,15.002],[108.373,14.972],[108.412,14.931],[108.45,14.897],[108.464,14.866],[108.474,14.855],[108.546,14.829],[108.561,14.827],[108.586,14.809],[108.617,14.779],[108.625,14.766],[108.619,14.75],[108.61,14.744],[108.599,14.729],[108.595,14.71],[108.579,14.667],[108.58,14.657],[108.594,14.654],[108.62,14.645],[108.629,14.634],[108.631,14.615],[108.631,14.615],[108.647,14.612],[108.656,14.606],[108.665,14.597],[108.687,14.565],[108.693,14.578],[108.719,14.597],[108.735,14.602],[108.752,14.612],[108.775,14.617],[108.792,14.618],[108.821,14.625],[108.83,14.639],[108.829,14.663],[108.84,14.686],[108.852,14.691],[108.898,14.696],[108.956,14.716],[108.988,14.712],[109.028,14.702],[109.056,14.69],[109.074,14.675],[109.089,14.66],[109.089,14.66]]}},{"type":"Feature","properties":{"pair":"2-3"},"geometry":{"type":"LineString","coordinates":[[107.211,12.294],[107.212,12.285],[107.218,12.273],[107.227,12.263],[107.234,12.25],[107.241,12.223],[107.244,12.199],[107.244,12.188],[107.247,12.154],[107.249,12.141],[107.253,12.13],[107.251,12.116],[107.247,12.098],[107.241,12.083],[107.24,12.07],[107.243,12.054],[107.252,12.041],[107.283,12.021],[107.352,11.983],[107.358,11.977],[107.367,11.957],[107.377,11.929],[107.395,11.911],[107.404,11.894],[107.406,11.881],[107.414,11.87],[107.424,11.865],[107.431,11.854],[107.428,11.842],[107.419,11.824],[107.408,11.808],[107.4,11.79],[107.398,11.768],[107.394,11.766],[107.373,11.767],[107.358,11.753],[107.349,11.748],[107.307,11.736],[107.284,11.725],[107.277,11.701],[107.277,11.688],[107.273,11.678],[107.266,11.667],[107.262,11.655],[107.261,11.642],[107.269,11.63],[107.277,11.627],[107.285,11.62],[107.29,11.61],[107.293,11.56],[107.296,11.554],[107.307,11.547],[107.314,11.546],[107.315,11.546],[107.347,11.548],[107.361,11.542],[107.373,11.529],[107.376,11.522],[107.385,11.517],[107.398,11.518],[107.414,11.514],[107.435,11.506],[107.445,11.502],[107.452,11.497],[107.457,11.488],[107.465,11.479],[107.465,11.474],[107.449,11.454],[107.442,11.45],[107.438,11.444],[107.435,11.433],[107.439,11.428],[107.446,11.424],[107.455,11.425],[107.466,11.43],[107.474,11.431],[107.48,11.429],[107.485,11.424],[107.488,11.416],[107.49,11.399],[107.502,11.383],[107.512,11.373],[107.521,11.368],[107.528,11.361],[107.535,11.357],[107.532,11.349],[107.528,11.324],[107.531,11.275],[107.514,11.246],[107.492,11.233],[107.481,11.218],[107.464,11.18],[107.44,11.151],[107.445,11.126],[107.449,11.114],[107.446,11.097],[107.433,11.089],[107.398,11.046],[107.424,11.031],[107.438,11.025],[107.462,11.019],[107.485,11.016],[107.504,11.012],[107.523,10.999],[107.53,10.984],[107.531,10.968],[107.541,10.944],[107.541,10.926],[107.544,10.911],[107.539,10.881],[107.541,10.857],[107.552,10.827],[107.551,10.813],[107.544,10.797],[107.536,10.788],[107.524,10.781],[107.512,10.779],[107.507,10.775],[107.502,10.764],[107.507,10.749],[107.497,10.739],[107.492,10.722],[107.492,10.72],[107.496,10.703],[107.503,10.682],[107.507,10.664],[107.508,10.652],[107.515,10.622],[107.533,10.569],[107.544,10.554],[107.546,10.544]]}},{"type":"Feature","properties":{"pair":"3-4"},"geometry":{"type":"LineString","coordinates":[[105.508,10.953],[105.586,10.89],[105.602,10.863],[105.611,10.832],[105.644,10.802],[105.68,10.773],[105.688,10.765],[105.731,10.713],[105.739,10.701],[105.767,10.674],[105.781,10.664],[105.794,10.658],[105.822,10.648],[105.843,10.636],[105.864,10.615],[105.882,10.58],[105.895,10.565],[105.907,10.54],[105.927,10.539],[106.102,10.523],[106.1,10.572],[106.134,10.568],[106.167,10.569],[106.248,10.561],[106.277,10.56],[106.284,10.552],[106.307,10.538],[106.334,10.509],[106.341,10.494],[106.341,10.463],[106.348,10.447],[106.392,10.443],[106.433,10.428],[106.43,10.41],[106.414,10.398],[106.421,10.379],[106.464,10.377],[106.512,10.389],[106.542,10.381],[106.567,10.391],[106.602,10.409],[106.618,10.423],[106.633,10.433],[106.641,10.42],[106.651,10.408],[106.675,10.415],[106.678,10.426],[106.693,10.431],[106.703,10.461],[106.734,10.496],[106.746,10.509],[106.75,10.49],[106.765,10.436],[106.776,10.411],[106.791,10.403],[106.808,10.393]]}}]}