{"type":"FeatureCollection","features":[{"type":"Feature","properties":{"mr":1,"name":"Military Region I"},"geometry":{"type":"Point","coordinates":[107.739,15.984]}},{"type":"Feature","properties":{"mr":2,"name":"Military Region II"},"geometry":{"type":"Point","coordinates":[108.342,12.96]}},{"type":"Feature","properties":{"mr":3,"name":"Military Region III"},"geometry":{"type":"Point","coordinates":[106.708,11.219]}},{"type":"Feature","properties":{"mr":4,"name":"Military Region IV"},"geometry":{"type":"Point","coordinates":[105.622,9.975]}}]}