{"type":"FeatureCollection","features":[{"type":"Feature","properties":{"mr":1,"name":"Military Region I"},"geometry":{"type":"MultiPolygon","coordinates":[[[[106.52,16.915],[106.521,16.906],[106.526,16.893],[106.535,16.885],[106.544,16.879],[106.549,16.871],[106.554,16.862],[106.552,16.825],[106.554,16.785],[106.553,16.748],[106.554,16.707],[106.591,16.66],[106.592,16.652],[106.589,16.647],[106.588,16.621],[106.598,16.611],[106.617,16.603],[106.625,16.597],[106.641,16.589],[106.665,16.583],[106.671,16.579],[106.67,16.568],[106.663,16.555],[106.651,16.54],[106.649,16.529],[106.653,16.518],[106.662,16.505],[106.664,16.491],[106.675,16.462],[106.681,16.451],[106.694,16.444],[106.703,16.438],[106.724,16.432],[106.743,16.42],[106.747,16.42],[106.754,16.422],[106.763,16.426],[106.777,16.443],[106.786,16.45],[106.805,16.46],[106.813,16.468],[106.833,16.501],[106.837,16.521],[106.836,16.532],[106.839,16.543],[106.846,16.549],[106.857,16.546],[106.867,16.539],[106.897,16.528],[106.902,16.524],[106.904,16.512],[106.902,16.489],[106.905,16.471],[106.903,16.458],[106.902,16.44],[106.899,16.409],[106.9,16.405],[106.917,16.393],[106.928,16.38],[106.944,16.365],[106.96,16.359],[106.967,16.354],[106.973,16.346],[106.971,16.316],[106.973,16.311],[106.982,16.308],[106.995,16.312],[107.004,16.314],[107.017,16.312],[107.019,16.309],[107.028,16.306],[107.04,16.308],[107.046,16.304],[107.052,16.303],[107.063,16.306],[107.084,16.304],[107.099,16.306],[107.128,16.286],[107.145,16.276],[107.161,16.274],[107.164,16.272],[107.168,16.257],[107.165,16.244],[107.152,16.212],[107.162,16.188],[107.177,16.17],[107.208,16.149],[107.257,16.141],[107.284,16.128],[107.304,16.108],[107.313,16.095],[107.326,16.085],[107.339,16.062],[107.353,16.057],[107.387,16.063],[107.414,16.073],[107.431,16.083],[107.446,16.086],[107.471,16.079],[107.473,16.064],[107.462,16.039],[107.47,16.025],[107.474,16.021],[107.478,15.999],[107.475,15.989],[107.469,15.98],[107.458,15.969],[107.451,15.959],[107.446,15.944],[107.437,15.907],[107.423,15.898],[107.363,15.891],[107.338,15.884],[107.329,15.877],[107.315,15.87],[107.304,15.869],[107.292,15.864],[107.268,15.849],[107.248,15.839],[107.223,15.83],[107.218,15.815],[107.223,15.802],[107.233,15.795],[107.231,15.777],[107.224,15.765],[107.22,15.753],[107.232,15.731],[107.259,15.723],[107.276,15.71],[107.282,15.701],[107.284,15.676],[107.279,15.658],[107.281,15.646],[107.294,15.636],[107.319,15.627],[107.338,15.615],[107.35,15.606],[107.36,15.589],[107.36,15.567],[107.385,15.532],[107.394,15.513],[107.407,15.499],[107.434,15.491],[107.453,15.496],[107.479,15.496],[107.508,15.476],[107.527,15.458],[107.545,15.413],[107.571,15.402],[107.595,15.402],[107.617,15.403],[107.636,15.414],[107.663,15.402],[107.671,15.379],[107.673,15.369],[107.679,15.357],[107.7,15.335],[107.728,15.316],[107.749,15.307],[107.762,15.296],[107.766,15.269],[107.772,15.255],[107.779,15.242],[107.797,15.229],[107.849,15.225],[107.879,15.221],[107.927,15.214],[107.977,15.203],[107.994,15.194],[108.053,15.16],[108.059,15.148],[108.059,15.14],[108.055,15.132],[108.036,15.102],[108.033,15.095],[108.024,15.083],[108.013,15.055],[108.016,15.051],[108.03,15.038],[108.036,15.031],[108.06,15.023],[108.078,15.02],[108.084,15.017],[108.11,15],[108.131,14.989],[108.152,14.983],[108.191,14.985],[108.225,14.984],[108.234,14.987],[108.237,14.993],[108.235,15.003],[108.221,15.039],[108.221,15.056],[108.224,15.07],[108.234,15.078],[108.244,15.077],[108.278,15.052],[108.303,15.047],[108.316,15.042],[108.332,15.016],[108.338,15.002],[108.373,14.972],[108.412,14.931],[108.45,14.897],[108.464,14.866],[108.474,14.855],[108.546,14.829],[108.561,14.827],[108.586,14.809],[108.617,14.779],[108.625,14.766],[108.619,14.75],[108.61,14.744],[108.599,14.729],[108.595,14.71],[108.579,14.667],[108.58,14.657],[108.594,14.654],[108.62,14.645],[108.629,14.634],[108.631,14.615],[108.631,14.615],[108.647,14.612],[108.656,14.606],[108.665,14.597],[108.687,14.565],[108.693,14.578],[108.719,14.597],[108.735,14.602],[108.752,14.612],[108.775,14.617],[108.792,14.618],[108.821,14.625],[108.83,14.639],[108.829,14.663],[108.84,14.686],[108.852,14.691],[108.898,14.696],[108.956,14.716],[108.988,14.712],[109.028,14.702],[109.056,14.69],[109.074,14.675],[109.089,14.66],[109.089,14.66],[109.096,14.68],[109.036,14.773],[109.014,14.817],[109.005,14.851],[108.988,14.87],[108.977,14.897],[108.941,14.962],[108.929,14.993],[108.923,15.021],[108.913,15.052],[108.914,15.112],[108.919,15.128],[108.918,15.15],[108.907,15.175],[108.904,15.19],[108.91,15.2],[108.937,15.218],[108.955,15.217],[108.96,15.219],[108.965,15.234],[108.948,15.245],[108.926,15.25],[108.91,15.258],[108.895,15.268],[108.89,15.274],[108.879,15.294],[108.878,15.302],[108.884,15.327],[108.873,15.337],[108.871,15.35],[108.866,15.355],[108.851,15.354],[108.845,15.357],[108.838,15.364],[108.835,15.379],[108.835,15.39],[108.824,15.409],[108.832,15.415],[108.83,15.419],[108.825,15.42],[108.821,15.419],[108.815,15.414],[108.81,15.415],[108.802,15.426],[108.799,15.425],[108.8,15.419],[108.807,15.405],[108.803,15.401],[108.781,15.39],[108.773,15.388],[108.755,15.392],[108.747,15.399],[108.737,15.406],[108.72,15.422],[108.714,15.435],[108.71,15.453],[108.693,15.48],[108.679,15.497],[108.671,15.511],[108.64,15.517],[108.607,15.535],[108.585,15.551],[108.564,15.575],[108.537,15.627],[108.524,15.646],[108.499,15.693],[108.459,15.756],[108.444,15.786],[108.421,15.816],[108.413,15.842],[108.398,15.881],[108.375,15.899],[108.357,15.911],[108.344,15.922],[108.32,15.938],[108.305,15.95],[108.292,15.971],[108.292,15.971],[108.292,15.971],[108.282,15.987],[108.27,16.007],[108.26,16.031],[108.255,16.043],[108.251,16.059],[108.253,16.078],[108.26,16.093],[108.271,16.102],[108.283,16.105],[108.307,16.105],[108.323,16.111],[108.334,16.125],[108.334,16.131],[108.324,16.139],[108.319,16.14],[108.307,16.135],[108.294,16.134],[108.285,16.137],[108.273,16.143],[108.27,16.147],[108.256,16.151],[108.245,16.148],[108.23,16.136],[108.223,16.126],[108.226,16.118],[108.236,16.111],[108.239,16.105],[108.239,16.097],[108.226,16.09],[108.216,16.087],[108.205,16.079],[108.19,16.077],[108.179,16.08],[108.168,16.085],[108.146,16.105],[108.132,16.127],[108.133,16.143],[108.139,16.158],[108.15,16.172],[108.186,16.199],[108.193,16.204],[108.195,16.209],[108.158,16.202],[108.182,16.207],[108.196,16.209],[108.19,16.214],[108.156,16.212],[108.147,16.215],[108.127,16.215],[108.116,16.217],[108.085,16.238],[108.061,16.272],[108.039,16.307],[108.038,16.324],[108.031,16.336],[108.024,16.342],[108.02,16.341],[108.019,16.337],[108.023,16.322],[108.021,16.319],[108.012,16.314],[108.002,16.312],[107.982,16.316],[107.963,16.33],[107.953,16.341],[107.946,16.345],[107.942,16.341],[107.934,16.343],[107.901,16.369],[107.877,16.385],[107.785,16.466],[107.742,16.5],[107.681,16.545],[107.634,16.569],[107.628,16.568],[107.63,16.565],[107.639,16.559],[107.663,16.547],[107.684,16.533],[107.713,16.51],[107.741,16.48],[107.741,16.476],[107.738,16.473],[107.732,16.472],[107.724,16.476],[107.712,16.489],[107.7,16.496],[107.688,16.509],[107.684,16.518],[107.678,16.519],[107.657,16.496],[107.651,16.494],[107.647,16.496],[107.646,16.503],[107.651,16.509],[107.653,16.517],[107.649,16.527],[107.637,16.545],[107.613,16.56],[107.601,16.565],[107.584,16.578],[107.536,16.593],[107.524,16.605],[107.496,16.612],[107.464,16.625],[107.436,16.64],[107.435,16.65],[107.441,16.655],[107.446,16.656],[107.459,16.653],[107.491,16.639],[107.519,16.618],[107.546,16.607],[107.566,16.595],[107.577,16.591],[107.581,16.588],[107.619,16.571],[107.622,16.574],[107.586,16.599],[107.544,16.624],[107.527,16.639],[107.504,16.654],[107.476,16.67],[107.429,16.708],[107.413,16.725],[107.398,16.738],[107.389,16.742],[107.384,16.751],[107.377,16.761],[107.361,16.774],[107.342,16.786],[107.317,16.808],[107.307,16.82],[107.284,16.839],[107.271,16.848],[107.25,16.867],[107.192,16.912],[107.161,16.954],[107.14,16.977],[107.13,16.996],[107.114,17.014],[107.108,17.025],[107.118,17.064],[107.115,17.081],[107.112,17.087],[107.087,17.108],[107.05,17.127],[107.026,17.141],[107.003,17.161],[107.001,17.164],[106.991,17.162],[106.981,17.148],[106.953,17.122],[106.941,17.117],[106.921,17.105],[106.891,17.092],[106.869,17.086],[106.861,17.081],[106.862,17.069],[106.865,17.067],[106.87,17.059],[106.871,17.05],[106.86,17.045],[106.829,17.045],[106.821,17.04],[106.811,17.03],[106.806,17.012],[106.805,17],[106.801,16.993],[106.78,16.981],[106.774,16.975],[106.77,16.943],[106.766,16.937],[106.753,16.934],[106.746,16.938],[106.741,16.942],[106.732,16.948],[106.696,16.958],[106.668,16.952],[106.652,16.946],[106.615,16.944],[106.606,16.957],[106.607,16.965],[106.605,16.976],[106.602,16.983],[106.589,16.991],[106.575,16.994],[106.551,16.993],[106.549,16.992],[106.549,16.981],[106.548,16.926],[106.528,16.924],[106.52,16.915]]],[[[109.094,15.384],[109.096,15.377],[109.109,15.371],[109.117,15.369],[109.123,15.369],[109.133,15.376],[109.15,15.377],[109.15,15.379],[109.145,15.386],[109.125,15.394],[109.113,15.395],[109.104,15.394],[109.096,15.389],[109.094,15.384]]],[[[111.259,15.769],[111.263,15.764],[111.268,15.761],[111.275,15.763],[111.278,15.769],[111.277,15.773],[111.269,15.775],[111.263,15.773],[111.259,15.769]]],[[[111.674,16.505],[111.678,16.501],[111.684,16.502],[111.688,16.503],[111.689,16.512],[111.685,16.515],[111.681,16.515],[111.674,16.511],[111.674,16.505]]],[[[111.828,16.034],[111.829,16.03],[111.834,16.028],[111.841,16.034],[111.839,16.038],[111.83,16.037],[111.828,16.034]]],[[[112.39,16.808],[112.391,16.802],[112.397,16.799],[112.403,16.805],[112.403,16.811],[112.401,16.812],[112.393,16.811],[112.39,16.808]]],[[[112.4,16.901],[112.403,16.9],[112.409,16.903],[112.41,16.906],[112.406,16.909],[112.403,16.909],[112.4,16.906],[112.4,16.901]]],[[[112.783,16.642],[112.788,16.64],[112.794,16.644],[112.793,16.647],[112.788,16.65],[112.783,16.648],[112.783,16.642]]]]}},{"type":"Feature","properties":{"mr":2,"name":"Military Region II"},"geometry":{"type":"MultiPolygon","coordinates":[[[[107.211,12.294],[107.212,12.285],[107.218,12.273],[107.227,12.263],[107.234,12.25],[107.241,12.223],[107.244,12.199],[107.244,12.188],[107.247,12.154],[107.249,12.141],[107.253,12.13],[107.251,12.116],[107.247,12.098],[107.241,12.083],[107.24,12.07],[107.243,12.054],[107.252,12.041],[107.283,12.021],[107.352,11.983],[107.358,11.977],[107.367,11.957],[107.377,11.929],[107.395,11.911],[107.404,11.894],[107.406,11.881],[107.414,11.87],[107.424,11.865],[107.431,11.854],[107.428,11.842],[107.419,11.824],[107.408,11.808],[107.4,11.79],[107.398,11.768],[107.394,11.766],[107.373,11.767],[107.358,11.753],[107.349,11.748],[107.307,11.736],[107.284,11.725],[107.277,11.701],[107.277,11.688],[107.273,11.678],[107.266,11.667],[107.262,11.655],[107.261,11.642],[107.269,11.63],[107.277,11.627],[107.285,11.62],[107.29,11.61],[107.293,11.56],[107.296,11.554],[107.307,11.547],[107.314,11.546],[107.315,11.546],[107.347,11.548],[107.361,11.542],[107.373,11.529],[107.376,11.522],[107.385,11.517],[107.398,11.518],[107.414,11.514],[107.435,11.506],[107.445,11.502],[107.452,11.497],[107.457,11.488],[107.465,11.479],[107.465,11.474],[107.449,11.454],[107.442,11.45],[107.438,11.444],[107.435,11.433],[107.439,11.428],[107.446,11.424],[107.455,11.425],[107.466,11.43],[107.474,11.431],[107.48,11.429],[107.485,11.424],[107.488,11.416],[107.49,11.399],[107.502,11.383],[107.512,11.373],[107.521,11.368],[107.528,11.361],[107.535,11.357],[107.532,11.349],[107.528,11.324],[107.531,11.275],[107.514,11.246],[107.492,11.233],[107.481,11.218],[107.464,11.18],[107.44,11.151],[107.445,11.126],[107.449,11.114],[107.446,11.097],[107.433,11.089],[107.398,11.046],[107.424,11.031],[107.438,11.025],[107.462,11.019],[107.485,11.016],[107.504,11.012],[107.523,10.999],[107.53,10.984],[107.531,10.968],[107.541,10.944],[107.541,10.926],[107.544,10.911],[107.539,10.881],[107.541,10.857],[107.552,10.827],[107.551,10.813],[107.544,10.797],[107.536,10.788],[107.524,10.781],[107.512,10.779],[107.507,10.775],[107.502,10.764],[107.507,10.749],[107.497,10.739],[107.492,10.722],[107.492,10.72],[107.496,10.703],[107.503,10.682],[107.507,10.664],[107.508,10.652],[107.515,10.622],[107.533,10.569],[107.544,10.554],[107.546,10.544],[107.546,10.543],[107.574,10.556],[107.58,10.566],[107.634,10.593],[107.667,10.606],[107.727,10.622],[107.745,10.629],[107.797,10.669],[107.816,10.686],[107.828,10.692],[107.868,10.703],[107.896,10.706],[107.911,10.706],[107.957,10.692],[107.982,10.691],[108.004,10.703],[108.028,10.733],[108.04,10.783],[108.053,10.846],[108.065,10.876],[108.097,10.907],[108.158,10.922],[108.214,10.948],[108.232,10.95],[108.255,10.949],[108.273,10.937],[108.289,10.924],[108.287,10.918],[108.299,10.918],[108.313,10.945],[108.326,10.954],[108.332,10.953],[108.34,10.959],[108.345,10.98],[108.353,11.001],[108.365,11.015],[108.387,11.025],[108.413,11.032],[108.45,11.044],[108.473,11.056],[108.49,11.081],[108.5,11.101],[108.53,11.136],[108.551,11.156],[108.58,11.167],[108.634,11.177],[108.665,11.18],[108.682,11.177],[108.703,11.166],[108.71,11.157],[108.725,11.172],[108.732,11.188],[108.748,11.21],[108.766,11.261],[108.777,11.285],[108.798,11.299],[108.818,11.309],[108.842,11.315],[108.85,11.314],[108.852,11.314],[108.852,11.313],[108.861,11.307],[108.878,11.299],[108.891,11.296],[108.918,11.294],[108.94,11.298],[108.969,11.314],[108.992,11.327],[109.01,11.347],[109.01,11.366],[109,11.384],[108.998,11.4],[109.002,11.443],[109.013,11.482],[109.019,11.512],[109.027,11.534],[109.035,11.546],[109.034,11.571],[109.036,11.579],[109.047,11.584],[109.095,11.582],[109.107,11.576],[109.115,11.568],[109.122,11.557],[109.137,11.568],[109.145,11.588],[109.185,11.659],[109.188,11.678],[109.203,11.709],[109.22,11.719],[109.237,11.732],[109.231,11.742],[109.223,11.749],[109.214,11.76],[109.194,11.776],[109.187,11.793],[109.187,11.803],[109.182,11.813],[109.176,11.819],[109.168,11.833],[109.186,11.851],[109.189,11.865],[109.185,11.875],[109.172,11.864],[109.155,11.828],[109.141,11.819],[109.129,11.822],[109.117,11.834],[109.113,11.847],[109.112,11.864],[109.122,11.883],[109.138,11.897],[109.156,11.907],[109.171,11.92],[109.186,11.942],[109.193,11.963],[109.207,11.971],[109.213,11.956],[109.207,11.937],[109.211,11.914],[109.204,11.903],[109.213,11.882],[109.22,11.882],[109.231,11.878],[109.237,11.872],[109.242,11.864],[109.24,11.853],[109.231,11.85],[109.218,11.854],[109.216,11.846],[109.219,11.838],[109.225,11.832],[109.235,11.83],[109.249,11.831],[109.253,11.842],[109.253,11.852],[109.276,11.863],[109.278,11.879],[109.271,11.889],[109.262,11.896],[109.26,11.904],[109.274,11.942],[109.271,11.955],[109.258,11.974],[109.228,12.002],[109.218,12.024],[109.204,12.061],[109.194,12.078],[109.198,12.091],[109.204,12.107],[109.22,12.121],[109.23,12.142],[109.22,12.179],[109.219,12.195],[109.226,12.207],[109.209,12.242],[109.206,12.247],[109.211,12.26],[109.226,12.286],[109.234,12.29],[109.239,12.303],[109.216,12.341],[109.213,12.382],[109.205,12.401],[109.183,12.418],[109.169,12.433],[109.182,12.447],[109.209,12.442],[109.23,12.411],[109.232,12.396],[109.239,12.381],[109.265,12.362],[109.279,12.348],[109.307,12.354],[109.309,12.376],[109.322,12.379],[109.336,12.389],[109.337,12.408],[109.324,12.424],[109.291,12.445],[109.283,12.478],[109.253,12.498],[109.236,12.531],[109.234,12.547],[109.241,12.57],[109.244,12.588],[109.229,12.59],[109.216,12.585],[109.213,12.591],[109.216,12.633],[109.239,12.664],[109.263,12.683],[109.286,12.721],[109.297,12.733],[109.32,12.753],[109.344,12.759],[109.353,12.754],[109.36,12.739],[109.36,12.712],[109.352,12.694],[109.335,12.673],[109.327,12.643],[109.313,12.623],[109.307,12.609],[109.331,12.584],[109.347,12.573],[109.395,12.545],[109.42,12.544],[109.444,12.562],[109.443,12.592],[109.445,12.624],[109.46,12.649],[109.465,12.673],[109.414,12.707],[109.394,12.739],[109.375,12.789],[109.372,12.804],[109.373,12.824],[109.385,12.841],[109.392,12.846],[109.393,12.846],[109.413,12.869],[109.428,12.877],[109.439,12.872],[109.431,12.862],[109.427,12.853],[109.429,12.851],[109.444,12.853],[109.454,12.862],[109.456,12.869],[109.459,12.882],[109.459,12.898],[109.448,12.92],[109.424,12.951],[109.411,12.972],[109.396,12.988],[109.38,13.011],[109.362,13.031],[109.341,13.066],[109.327,13.095],[109.317,13.102],[109.307,13.12],[109.298,13.166],[109.302,13.184],[109.307,13.186],[109.298,13.208],[109.297,13.221],[109.303,13.232],[109.311,13.252],[109.312,13.267],[109.291,13.305],[109.287,13.324],[109.287,13.33],[109.297,13.332],[109.301,13.337],[109.297,13.349],[109.297,13.361],[109.292,13.368],[109.281,13.368],[109.271,13.363],[109.261,13.362],[109.255,13.364],[109.246,13.378],[109.247,13.388],[109.243,13.393],[109.237,13.394],[109.232,13.401],[109.235,13.407],[109.229,13.416],[109.231,13.434],[109.228,13.443],[109.231,13.46],[109.244,13.479],[109.25,13.483],[109.266,13.476],[109.283,13.463],[109.285,13.455],[109.282,13.448],[109.276,13.442],[109.263,13.438],[109.26,13.431],[109.26,13.42],[109.267,13.408],[109.284,13.4],[109.297,13.398],[109.315,13.411],[109.329,13.463],[109.336,13.481],[109.32,13.482],[109.311,13.492],[109.308,13.5],[109.31,13.519],[109.3,13.532],[109.286,13.534],[109.283,13.541],[109.297,13.559],[109.301,13.567],[109.3,13.573],[109.27,13.588],[109.244,13.622],[109.235,13.64],[109.232,13.65],[109.233,13.672],[109.232,13.678],[109.231,13.694],[109.223,13.706],[109.22,13.719],[109.218,13.73],[109.22,13.752],[109.237,13.769],[109.24,13.775],[109.231,13.795],[109.228,13.807],[109.226,13.835],[109.23,13.85],[109.242,13.857],[109.246,13.857],[109.26,13.812],[109.267,13.801],[109.265,13.792],[109.258,13.788],[109.255,13.782],[109.255,13.772],[109.257,13.766],[109.264,13.763],[109.274,13.762],[109.285,13.763],[109.295,13.766],[109.298,13.78],[109.29,13.795],[109.289,13.809],[109.298,13.819],[109.302,13.84],[109.297,13.855],[109.295,13.872],[109.298,13.885],[109.295,13.892],[109.284,13.896],[109.276,13.905],[109.254,13.937],[109.249,13.95],[109.252,13.977],[109.257,13.998],[109.257,14.01],[109.253,14.034],[109.245,14.046],[109.237,14.051],[109.218,14.095],[109.213,14.121],[109.221,14.124],[109.228,14.129],[109.229,14.138],[109.218,14.158],[109.206,14.188],[109.202,14.204],[109.201,14.224],[109.205,14.236],[109.202,14.252],[109.195,14.274],[109.186,14.292],[109.147,14.356],[109.138,14.374],[109.135,14.389],[109.129,14.402],[109.132,14.439],[109.115,14.48],[109.106,14.509],[109.096,14.535],[109.08,14.571],[109.086,14.579],[109.083,14.593],[109.077,14.607],[109.074,14.656],[109.078,14.659],[109.083,14.658],[109.088,14.658],[109.089,14.66],[109.089,14.66],[109.074,14.675],[109.056,14.69],[109.028,14.702],[108.988,14.712],[108.956,14.716],[108.898,14.696],[108.852,14.691],[108.84,14.686],[108.829,14.663],[108.83,14.639],[108.821,14.625],[108.792,14.618],[108.775,14.617],[108.752,14.612],[108.735,14.602],[108.719,14.597],[108.693,14.578],[108.687,14.565],[108.665,14.597],[108.656,14.606],[108.647,14.612],[108.631,14.615],[108.631,14.615],[108.629,14.634],[108.62,14.645],[108.594,14.654],[108.58,14.657],[108.579,14.667],[108.595,14.71],[108.599,14.729],[108.61,14.744],[108.619,14.75],[108.625,14.766],[108.617,14.779],[108.586,14.809],[108.561,14.827],[108.546,14.829],[108.474,14.855],[108.464,14.866],[108.45,14.897],[108.412,14.931],[108.373,14.972],[108.338,15.002],[108.332,15.016],[108.316,15.042],[108.303,15.047],[108.278,15.052],[108.244,15.077],[108.234,15.078],[108.224,15.07],[108.221,15.056],[108.221,15.039],[108.235,15.003],[108.237,14.993],[108.234,14.987],[108.225,14.984],[108.191,14.985],[108.152,14.983],[108.131,14.989],[108.11,15],[108.084,15.017],[108.078,15.02],[108.06,15.023],[108.036,15.031],[108.03,15.038],[108.016,15.051],[108.013,15.055],[108.024,15.083],[108.033,15.095],[108.036,15.102],[108.055,15.132],[108.059,15.14],[108.059,15.148],[108.053,15.16],[107.994,15.194],[107.977,15.203],[107.927,15.214],[107.879,15.221],[107.849,15.225],[107.797,15.229],[107.779,15.242],[107.772,15.255],[107.766,15.269],[107.762,15.296],[107.749,15.307],[107.728,15.316],[107.7,15.335],[107.679,15.357],[107.673,15.369],[107.671,15.379],[107.663,15.402],[107.636,15.414],[107.617,15.403],[107.601,15.381],[107.601,15.377],[107.613,15.363],[107.63,15.337],[107.638,15.312],[107.636,15.299],[107.619,15.27],[107.628,15.248],[107.634,15.223],[107.625,15.213],[107.598,15.191],[107.604,15.176],[107.615,15.163],[107.623,15.14],[107.625,15.112],[107.613,15.091],[107.613,15.075],[107.619,15.067],[107.612,15.047],[107.594,15.036],[107.586,15.03],[107.576,15.038],[107.563,15.043],[107.551,15.045],[107.52,15.033],[107.484,15.025],[107.469,15.016],[107.465,15.004],[107.475,14.995],[107.479,14.987],[107.486,14.961],[107.497,14.943],[107.509,14.936],[107.518,14.926],[107.548,14.907],[107.589,14.887],[107.595,14.882],[107.596,14.868],[107.582,14.847],[107.571,14.838],[107.544,14.824],[107.52,14.796],[107.523,14.781],[107.53,14.769],[107.535,14.749],[107.529,14.739],[107.527,14.725],[107.553,14.712],[107.555,14.681],[107.559,14.664],[107.558,14.64],[107.537,14.605],[107.521,14.584],[107.53,14.57],[107.532,14.561],[107.532,14.548],[107.527,14.531],[107.522,14.521],[107.513,14.51],[107.51,14.495],[107.504,14.485],[107.5,14.462],[107.502,14.454],[107.489,14.415],[107.48,14.405],[107.472,14.407],[107.466,14.413],[107.456,14.416],[107.444,14.414],[107.415,14.367],[107.411,14.355],[107.401,14.341],[107.394,14.327],[107.393,14.314],[107.406,14.267],[107.405,14.256],[107.395,14.241],[107.388,14.22],[107.378,14.197],[107.368,14.187],[107.352,14.165],[107.334,14.145],[107.33,14.122],[107.33,14.112],[107.342,14.095],[107.352,14.089],[107.364,14.086],[107.369,14.08],[107.369,14.068],[107.36,14.034],[107.36,14.023],[107.368,14.011],[107.377,14.002],[107.396,13.995],[107.435,13.993],[107.453,13.978],[107.458,13.961],[107.455,13.948],[107.468,13.972],[107.456,13.949],[107.457,13.945],[107.458,13.929],[107.466,13.922],[107.463,13.908],[107.462,13.878],[107.468,13.867],[107.469,13.858],[107.454,13.842],[107.443,13.819],[107.444,13.796],[107.468,13.787],[107.512,13.758],[107.52,13.75],[107.534,13.729],[107.546,13.707],[107.563,13.671],[107.565,13.658],[107.582,13.609],[107.61,13.56],[107.619,13.529],[107.626,13.467],[107.625,13.378],[107.623,13.358],[107.62,13.339],[107.609,13.307],[107.623,13.318],[107.6,13.299],[107.585,13.272],[107.569,13.223],[107.554,13.192],[107.523,13.132],[107.514,13.106],[107.501,13.072],[107.492,13.04],[107.491,13.012],[107.493,12.984],[107.482,12.956],[107.486,12.936],[107.491,12.924],[107.504,12.865],[107.531,12.834],[107.552,12.795],[107.554,12.792],[107.554,12.778],[107.55,12.744],[107.552,12.729],[107.557,12.704],[107.571,12.684],[107.571,12.67],[107.568,12.66],[107.566,12.634],[107.579,12.607],[107.582,12.593],[107.583,12.573],[107.587,12.556],[107.571,12.523],[107.57,12.499],[107.573,12.487],[107.564,12.471],[107.551,12.439],[107.547,12.423],[107.543,12.386],[107.545,12.378],[107.54,12.359],[107.537,12.353],[107.53,12.35],[107.521,12.338],[107.511,12.33],[107.49,12.318],[107.483,12.316],[107.449,12.291],[107.439,12.277],[107.439,12.264],[107.432,12.253],[107.42,12.246],[107.398,12.248],[107.39,12.26],[107.381,12.28],[107.367,12.303],[107.346,12.316],[107.325,12.324],[107.309,12.324],[107.265,12.314],[107.239,12.299],[107.23,12.296],[107.222,12.293],[107.211,12.294]]],[[[108.893,10.501],[108.894,10.492],[108.902,10.473],[108.917,10.452],[108.928,10.451],[108.931,10.456],[108.932,10.465],[108.93,10.475],[108.915,10.501],[108.899,10.505],[108.893,10.501]]],[[[109.04,9.929],[109.04,9.917],[109.046,9.915],[109.051,9.918],[109.055,9.928],[109.055,9.933],[109.048,9.934],[109.043,9.933],[109.04,9.929]]],[[[109.232,12.229],[109.242,12.215],[109.253,12.203],[109.265,12.195],[109.284,12.176],[109.292,12.173],[109.299,12.179],[109.299,12.191],[109.32,12.185],[109.329,12.195],[109.33,12.215],[109.312,12.221],[109.304,12.223],[109.298,12.229],[109.26,12.235],[109.252,12.228],[109.247,12.229],[109.238,12.236],[109.232,12.229]]],[[[109.328,13.286],[109.329,13.281],[109.334,13.277],[109.34,13.277],[109.342,13.283],[109.337,13.284],[109.338,13.286],[109.333,13.289],[109.33,13.288],[109.328,13.286]]],[[[113.996,9.912],[113.997,9.909],[114.001,9.907],[114.006,9.907],[114.01,9.909],[114.011,9.912],[114.01,9.917],[113.997,9.917],[113.996,9.912]]],[[[114.253,10.951],[114.254,10.947],[114.259,10.945],[114.261,10.947],[114.262,10.95],[114.261,10.953],[114.254,10.954],[114.253,10.951]]],[[[114.325,10.277],[114.333,10.269],[114.34,10.27],[114.348,10.276],[114.353,10.283],[114.352,10.286],[114.347,10.286],[114.342,10.283],[114.33,10.281],[114.325,10.277]]],[[[114.33,10.077],[114.33,10.069],[114.341,10.069],[114.345,10.082],[114.344,10.088],[114.334,10.087],[114.33,10.077]]],[[[114.333,9.579],[114.333,9.574],[114.339,9.571],[114.348,9.57],[114.351,9.573],[114.352,9.578],[114.341,9.58],[114.333,9.579]]],[[[114.415,10.295],[114.415,10.288],[114.426,10.286],[114.429,10.283],[114.431,10.275],[114.434,10.271],[114.443,10.271],[114.448,10.276],[114.449,10.282],[114.446,10.284],[114.442,10.283],[114.438,10.286],[114.437,10.291],[114.429,10.296],[114.423,10.297],[114.415,10.295]]],[[[114.989,11.026],[114.991,11.021],[114.996,11.022],[114.997,11.026],[114.994,11.029],[114.991,11.028],[114.989,11.026]]]]}},{"type":"Feature","properties":{"mr":3,"name":"Military Region III"},"geometry":{"type":"MultiPolygon","coordinates":[[[[105.508,10.953],[105.586,10.89],[105.602,10.863],[105.611,10.832],[105.644,10.802],[105.68,10.773],[105.688,10.765],[105.731,10.713],[105.739,10.701],[105.767,10.674],[105.781,10.664],[105.794,10.658],[105.822,10.648],[105.843,10.636],[105.864,10.615],[105.882,10.58],[105.895,10.565],[105.907,10.54],[105.927,10.539],[106.102,10.523],[106.1,10.572],[106.134,10.568],[106.167,10.569],[106.248,10.561],[106.277,10.56],[106.284,10.552],[106.307,10.538],[106.334,10.509],[106.341,10.494],[106.341,10.463],[106.348,10.447],[106.392,10.443],[106.433,10.428],[106.43,10.41],[106.414,10.398],[106.421,10.379],[106.464,10.377],[106.512,10.389],[106.542,10.381],[106.567,10.391],[106.602,10.409],[106.618,10.423],[106.633,10.433],[106.641,10.42],[106.651,10.408],[106.675,10.415],[106.678,10.426],[106.693,10.431],[106.703,10.461],[106.734,10.496],[106.746,10.509],[106.75,10.49],[106.765,10.436],[106.776,10.411],[106.791,10.403],[106.808,10.393],[106.814,10.399],[106.835,10.41],[106.834,10.394],[106.827,10.377],[106.834,10.333],[106.88,10.331],[106.903,10.343],[106.92,10.361],[106.922,10.381],[106.908,10.393],[106.899,10.414],[106.91,10.418],[106.924,10.418],[106.938,10.439],[106.933,10.47],[106.936,10.48],[106.967,10.49],[106.975,10.499],[106.992,10.5],[107.014,10.494],[107.028,10.467],[107.039,10.459],[107.059,10.441],[107.074,10.438],[107.1,10.436],[107.109,10.426],[107.108,10.409],[107.095,10.399],[107.067,10.39],[107.063,10.37],[107.063,10.361],[107.076,10.335],[107.083,10.327],[107.091,10.332],[107.1,10.344],[107.111,10.354],[107.138,10.369],[107.154,10.383],[107.172,10.405],[107.181,10.41],[107.188,10.408],[107.208,10.398],[107.216,10.388],[107.232,10.376],[107.252,10.377],[107.272,10.39],[107.286,10.403],[107.303,10.425],[107.324,10.44],[107.337,10.455],[107.355,10.461],[107.382,10.465],[107.432,10.465],[107.449,10.471],[107.464,10.488],[107.483,10.496],[107.513,10.506],[107.525,10.522],[107.542,10.538],[107.546,10.544],[107.544,10.554],[107.533,10.569],[107.515,10.622],[107.508,10.652],[107.507,10.664],[107.503,10.682],[107.496,10.703],[107.492,10.72],[107.492,10.722],[107.497,10.739],[107.507,10.749],[107.502,10.764],[107.507,10.775],[107.512,10.779],[107.524,10.781],[107.536,10.788],[107.544,10.797],[107.551,10.813],[107.552,10.827],[107.541,10.857],[107.539,10.881],[107.544,10.911],[107.541,10.926],[107.541,10.944],[107.531,10.968],[107.53,10.984],[107.523,10.999],[107.504,11.012],[107.485,11.016],[107.462,11.019],[107.438,11.025],[107.424,11.031],[107.398,11.046],[107.433,11.089],[107.446,11.097],[107.449,11.114],[107.445,11.126],[107.44,11.151],[107.464,11.18],[107.481,11.218],[107.492,11.233],[107.514,11.246],[107.531,11.275],[107.528,11.324],[107.532,11.349],[107.535,11.357],[107.528,11.361],[107.521,11.368],[107.512,11.373],[107.502,11.383],[107.49,11.399],[107.488,11.416],[107.485,11.424],[107.48,11.429],[107.474,11.431],[107.466,11.43],[107.455,11.425],[107.446,11.424],[107.439,11.428],[107.435,11.433],[107.438,11.444],[107.442,11.45],[107.449,11.454],[107.465,11.474],[107.465,11.479],[107.457,11.488],[107.452,11.497],[107.445,11.502],[107.435,11.506],[107.414,11.514],[107.398,11.518],[107.385,11.517],[107.376,11.522],[107.373,11.529],[107.361,11.542],[107.347,11.548],[107.315,11.546],[107.314,11.546],[107.307,11.547],[107.296,11.554],[107.293,11.56],[107.29,11.61],[107.285,11.62],[107.277,11.627],[107.269,11.63],[107.261,11.642],[107.262,11.655],[107.266,11.667],[107.273,11.678],[107.277,11.688],[107.277,11.701],[107.284,11.725],[107.307,11.736],[107.349,11.748],[107.358,11.753],[107.373,11.767],[107.394,11.766],[107.398,11.768],[107.4,11.79],[107.408,11.808],[107.419,11.824],[107.428,11.842],[107.431,11.854],[107.424,11.865],[107.414,11.87],[107.406,11.881],[107.404,11.894],[107.395,11.911],[107.377,11.929],[107.367,11.957],[107.358,11.977],[107.352,11.983],[107.283,12.021],[107.252,12.041],[107.243,12.054],[107.24,12.07],[107.241,12.083],[107.247,12.098],[107.251,12.116],[107.253,12.13],[107.249,12.141],[107.247,12.154],[107.244,12.188],[107.244,12.199],[107.241,12.223],[107.234,12.25],[107.227,12.263],[107.218,12.273],[107.212,12.285],[107.211,12.294],[107.207,12.294],[107.168,12.282],[107.151,12.265],[107.145,12.253],[107.118,12.215],[107.086,12.185],[107.042,12.133],[107.005,12.106],[106.953,12.072],[106.934,12.067],[106.894,12.061],[106.866,12.061],[106.84,12.07],[106.822,12.078],[106.803,12.08],[106.792,12.078],[106.773,12.06],[106.753,12.02],[106.747,12.001],[106.733,11.981],[106.709,11.967],[106.687,11.968],[106.671,11.971],[106.663,11.982],[106.655,11.981],[106.657,11.969],[106.644,11.963],[106.628,11.968],[106.61,11.969],[106.57,11.967],[106.545,11.967],[106.532,11.971],[106.525,11.976],[106.512,11.974],[106.493,11.969],[106.478,11.971],[106.466,11.974],[106.458,11.984],[106.447,11.983],[106.427,11.971],[106.412,11.974],[106.423,11.956],[106.452,11.895],[106.463,11.88],[106.464,11.866],[106.454,11.864],[106.446,11.85],[106.448,11.837],[106.446,11.822],[106.433,11.796],[106.426,11.786],[106.423,11.729],[106.426,11.718],[106.45,11.692],[106.453,11.683],[106.451,11.672],[106.447,11.668],[106.449,11.67],[106.447,11.671],[106.437,11.671],[106.412,11.677],[106.392,11.69],[106.384,11.693],[106.362,11.692],[106.334,11.679],[106.313,11.677],[106.302,11.68],[106.291,11.693],[106.281,11.7],[106.266,11.719],[106.257,11.724],[106.228,11.73],[106.221,11.731],[106.199,11.74],[106.194,11.747],[106.186,11.748],[106.17,11.735],[106.157,11.735],[106.142,11.743],[106.127,11.743],[106.11,11.747],[106.091,11.764],[106.075,11.775],[106.041,11.779],[106.02,11.771],[106.011,11.759],[106.013,11.743],[106.018,11.73],[106.007,11.72],[106,11.708],[105.99,11.7],[105.984,11.692],[105.98,11.664],[105.966,11.647],[105.951,11.641],[105.939,11.644],[105.907,11.666],[105.885,11.676],[105.865,11.676],[105.852,11.667],[105.827,11.637],[105.822,11.626],[105.812,11.618],[105.809,11.604],[105.811,11.589],[105.816,11.573],[105.83,11.572],[105.855,11.565],[105.869,11.557],[105.881,11.541],[105.883,11.524],[105.877,11.487],[105.875,11.467],[105.877,11.456],[105.896,11.447],[105.896,11.435],[105.89,11.426],[105.877,11.411],[105.875,11.388],[105.876,11.377],[105.881,11.363],[105.871,11.317],[105.873,11.306],[105.888,11.299],[105.903,11.265],[105.91,11.239],[105.932,11.223],[106.011,11.19],[106.019,11.176],[106.023,11.161],[106.033,11.138],[106.061,11.123],[106.11,11.079],[106.121,11.086],[106.157,11.098],[106.165,11.083],[106.18,11.044],[106.185,11.009],[106.199,10.975],[106.19,10.975],[106.167,10.982],[106.16,10.983],[106.151,10.982],[106.143,10.974],[106.146,10.96],[106.149,10.918],[106.182,10.872],[106.192,10.845],[106.195,10.828],[106.196,10.807],[106.194,10.791],[106.158,10.812],[106.094,10.808],[106.083,10.81],[106.068,10.814],[106.046,10.831],[106.011,10.856],[105.972,10.895],[105.942,10.92],[105.945,10.906],[105.949,10.894],[105.946,10.884],[105.926,10.868],[105.929,10.853],[105.912,10.848],[105.887,10.854],[105.861,10.868],[105.856,10.873],[105.853,10.906],[105.843,10.926],[105.835,10.941],[105.824,10.952],[105.809,10.966],[105.79,10.993],[105.781,11.027],[105.772,11.034],[105.749,11.036],[105.72,11.025],[105.702,11.015],[105.667,11.003],[105.566,10.979],[105.525,10.963],[105.508,10.953]]]]}},{"type":"Feature","properties":{"mr":4,"name":"Military Region IV"},"geometry":{"type":"MultiPolygon","coordinates":[[[[103.838,10.376],[103.839,10.355],[103.86,10.324],[103.888,10.301],[103.934,10.275],[103.945,10.263],[103.953,10.247],[103.965,10.216],[103.975,10.197],[103.98,10.176],[103.984,10.129],[103.991,10.095],[103.996,10.054],[104.007,10.029],[104.01,10.006],[104.008,9.997],[104.01,9.991],[104.015,9.988],[104.038,10.032],[104.043,10.052],[104.045,10.076],[104.043,10.095],[104.043,10.126],[104.047,10.171],[104.073,10.247],[104.076,10.266],[104.076,10.336],[104.065,10.365],[104.056,10.389],[104.027,10.424],[104.002,10.445],[103.985,10.448],[103.97,10.43],[103.967,10.41],[103.951,10.387],[103.945,10.371],[103.931,10.362],[103.912,10.362],[103.878,10.378],[103.838,10.376]]],[[[104.333,9.752],[104.336,9.722],[104.339,9.705],[104.348,9.697],[104.361,9.695],[104.369,9.706],[104.397,9.713],[104.407,9.721],[104.408,9.734],[104.403,9.746],[104.389,9.764],[104.372,9.755],[104.365,9.755],[104.363,9.761],[104.364,9.773],[104.372,9.786],[104.372,9.797],[104.367,9.797],[104.357,9.795],[104.345,9.786],[104.337,9.768],[104.333,9.752]]],[[[104.431,10.418],[104.433,10.377],[104.471,10.376],[104.498,10.372],[104.518,10.353],[104.565,10.303],[104.577,10.257],[104.58,10.221],[104.599,10.165],[104.629,10.155],[104.654,10.16],[104.681,10.184],[104.7,10.212],[104.732,10.232],[104.765,10.235],[104.813,10.212],[104.857,10.139],[104.873,10.118],[104.898,10.103],[104.917,10.098],[104.965,10.111],[104.997,10.106],[105.037,10.083],[105.074,10.052],[105.096,10.019],[105.101,9.984],[105.1,9.97],[105.083,9.965],[105.053,9.953],[104.97,9.894],[104.926,9.873],[104.908,9.86],[104.889,9.831],[104.876,9.761],[104.863,9.717],[104.854,9.68],[104.84,9.588],[104.841,9.572],[104.838,9.558],[104.834,9.448],[104.819,9.238],[104.814,9.209],[104.798,9.142],[104.802,9.111],[104.802,9.021],[104.805,8.925],[104.797,8.885],[104.786,8.858],[104.778,8.824],[104.784,8.803],[104.798,8.788],[104.821,8.792],[104.87,8.817],[104.886,8.816],[104.879,8.797],[104.858,8.788],[104.836,8.781],[104.817,8.768],[104.808,8.744],[104.803,8.725],[104.793,8.716],[104.79,8.691],[104.799,8.671],[104.791,8.657],[104.771,8.649],[104.742,8.643],[104.717,8.646],[104.708,8.631],[104.715,8.613],[104.735,8.601],[104.764,8.592],[104.827,8.579],[104.879,8.576],[104.928,8.581],[104.981,8.597],[105.012,8.612],[105.055,8.629],[105.108,8.658],[105.156,8.691],[105.213,8.756],[105.233,8.77],[105.254,8.779],[105.299,8.814],[105.318,8.835],[105.343,8.872],[105.375,8.935],[105.39,8.965],[105.399,8.998],[105.414,9.025],[105.433,9.051],[105.441,9.059],[105.462,9.073],[105.485,9.112],[105.502,9.124],[105.532,9.134],[105.588,9.158],[105.602,9.167],[105.654,9.183],[105.748,9.223],[105.779,9.24],[105.823,9.258],[105.838,9.262],[105.859,9.266],[105.88,9.272],[105.9,9.276],[105.969,9.299],[105.999,9.305],[106.063,9.324],[106.104,9.333],[106.152,9.339],[106.169,9.344],[106.179,9.345],[106.19,9.349],[106.2,9.358],[106.205,9.373],[106.204,9.4],[106.206,9.432],[106.222,9.47],[106.238,9.481],[106.27,9.494],[106.283,9.511],[106.292,9.535],[106.296,9.56],[106.257,9.6],[106.184,9.672],[106.146,9.716],[106.128,9.745],[106.107,9.769],[106.087,9.786],[106.164,9.721],[106.186,9.705],[106.269,9.638],[106.305,9.611],[106.398,9.55],[106.432,9.545],[106.459,9.545],[106.489,9.548],[106.542,9.573],[106.572,9.595],[106.585,9.621],[106.595,9.656],[106.586,9.687],[106.571,9.721],[106.547,9.77],[106.546,9.786],[106.562,9.811],[106.565,9.825],[106.562,9.839],[106.563,9.837],[106.574,9.823],[106.601,9.816],[106.619,9.817],[106.657,9.828],[106.672,9.848],[106.684,9.877],[106.685,9.894],[106.667,9.928],[106.62,9.957],[106.613,9.964],[106.625,9.96],[106.669,9.98],[106.681,10.002],[106.694,10.017],[106.716,10.028],[106.734,10.033],[106.747,10.044],[106.764,10.059],[106.782,10.083],[106.793,10.114],[106.789,10.135],[106.784,10.179],[106.745,10.195],[106.711,10.215],[106.699,10.231],[106.676,10.248],[106.663,10.254],[106.721,10.244],[106.755,10.237],[106.779,10.243],[106.783,10.265],[106.773,10.293],[106.77,10.319],[106.789,10.334],[106.814,10.351],[106.806,10.381],[106.808,10.393],[106.791,10.403],[106.776,10.411],[106.765,10.436],[106.75,10.49],[106.746,10.509],[106.734,10.496],[106.703,10.461],[106.693,10.431],[106.678,10.426],[106.675,10.415],[106.651,10.408],[106.641,10.42],[106.633,10.433],[106.618,10.423],[106.602,10.409],[106.567,10.391],[106.542,10.381],[106.512,10.389],[106.464,10.377],[106.421,10.379],[106.414,10.398],[106.43,10.41],[106.433,10.428],[106.392,10.443],[106.348,10.447],[106.341,10.463],[106.341,10.494],[106.334,10.509],[106.307,10.538],[106.284,10.552],[106.277,10.56],[106.248,10.561],[106.167,10.569],[106.134,10.568],[106.1,10.572],[106.102,10.523],[105.927,10.539],[105.907,10.54],[105.895,10.565],[105.882,10.58],[105.864,10.615],[105.843,10.636],[105.822,10.648],[105.794,10.658],[105.781,10.664],[105.767,10.674],[105.739,10.701],[105.731,10.713],[105.688,10.765],[105.68,10.773],[105.644,10.802],[105.611,10.832],[105.602,10.863],[105.586,10.89],[105.508,10.953],[105.5,10.954],[105.486,10.961],[105.471,10.966],[105.444,10.965],[105.433,10.975],[105.42,10.979],[105.41,10.959],[105.406,10.944],[105.39,10.926],[105.365,10.902],[105.354,10.889],[105.338,10.877],[105.294,10.892],[105.283,10.892],[105.261,10.897],[105.211,10.917],[105.195,10.917],[105.184,10.915],[105.185,10.914],[105.179,10.925],[105.165,10.931],[105.144,10.93],[105.116,10.925],[105.105,10.927],[105.112,10.953],[105.108,10.96],[105.102,10.961],[105.05,10.936],[105.026,10.917],[105.017,10.904],[105.019,10.892],[105.022,10.886],[105.045,10.858],[105.052,10.845],[105.054,10.816],[105.06,10.798],[105.075,10.781],[105.088,10.759],[105.09,10.737],[105.083,10.726],[104.988,10.671],[104.963,10.654],[104.939,10.626],[104.917,10.598],[104.896,10.565],[104.883,10.549],[104.862,10.533],[104.825,10.526],[104.787,10.524],[104.777,10.524],[104.719,10.532],[104.668,10.542],[104.65,10.539],[104.633,10.531],[104.614,10.533],[104.596,10.53],[104.579,10.514],[104.54,10.453],[104.521,10.418],[104.492,10.419],[104.474,10.429],[104.458,10.432],[104.436,10.426],[104.431,10.418]],[[105.379,9.621],[105.402,9.633],[105.395,9.65],[105.403,9.634],[105.379,9.621]],[[106.16,10.195],[106.2,10.164],[106.213,10.15],[106.195,10.168],[106.16,10.195]]],[[[104.607,9.843],[104.609,9.839],[104.625,9.837],[104.634,9.838],[104.647,9.839],[104.658,9.844],[104.666,9.851],[104.665,9.865],[104.655,9.871],[104.645,9.868],[104.634,9.862],[104.629,9.852],[104.607,9.843]]],[[[104.818,8.459],[104.819,8.453],[104.823,8.445],[104.829,8.44],[104.833,8.443],[104.836,8.456],[104.83,8.459],[104.829,8.472],[104.824,8.472],[104.818,8.459]]],[[[104.833,9.993],[104.839,9.976],[104.844,9.977],[104.847,9.983],[104.847,9.992],[104.85,9.997],[104.851,10.004],[104.844,10.007],[104.839,10.002],[104.838,9.998],[104.833,9.993]]],[[[106.138,8.612],[106.141,8.611],[106.145,8.612],[106.145,8.62],[106.14,8.619],[106.138,8.612]]]]}}]}